[
    {
        "Altitude(m)": 715644.0363218132,
        "Argument of Periapsis(deg)": 0.0011390121186627068,
        "Eccentricity": 0.0,
        "Inclination(deg)": 45.0,
        "Latitude(deg)": -39.75027268966543,
        "Longitude(deg)": 134.1340059131361,
        "Mean Anomaly(deg)": -64.3011783352519,
        "RAAN(deg)": 289.9989248058542,
        "Satellite Name": "Constellation 1 1294",
        "Satellite Number": 1294,
        "Semi-Major Axis(m)": 7083131.272910544,
        "Time(s)": 19
    },
    {
        "Altitude(m)": 715634.0372377959,
        "Argument of Periapsis(deg)": 0.0011989601249081123,
        "Eccentricity": 0.0,
        "Inclination(deg)": 45.0,
        "Latitude(deg)": -39.72612597797107,
        "Longitude(deg)": 134.20199540275874,
        "Mean Anomaly(deg)": -64.24047719500197,
        "RAAN(deg)": 289.9988682166886,
        "Satellite Name": "Constellation 1 1294",
        "Satellite Number": 1294,
        "Semi-Major Axis(m)": 7083131.272910544,
        "Time(s)": 20
    },
    {
        "Altitude(m)": 715624.0199926237,
        "Argument of Periapsis(deg)": 0.001258908131153518,
        "Eccentricity": 0.0,
        "Inclination(deg)": 45.0,
        "Latitude(deg)": -39.70193440387402,
        "Longitude(deg)": 134.26993469926865,
        "Mean Anomaly(deg)": -64.17977605475211,
        "RAAN(deg)": 289.9988116275231,
        "Satellite Name": "Constellation 1 1294",
        "Satellite Number": 1294,
        "Semi-Major Axis(m)": 7083131.272910544,
        "Time(s)": 21
    },
    {
        "Altitude(m)": 715613.9846228021,
        "Argument of Periapsis(deg)": 0.0013188561373989236,
        "Eccentricity": 0.0,
        "Inclination(deg)": 45.0,
        "Latitude(deg)": -39.6776980360658,
        "Longitude(deg)": 134.3378236199063,
        "Mean Anomaly(deg)": -64.11907491450228,
        "RAAN(deg)": 289.9987550383575,
        "Satellite Name": "Constellation 1 1294",
        "Satellite Number": 1294,
        "Semi-Major Axis(m)": 7083131.272910544,
        "Time(s)": 22
    },
    {
        "Altitude(m)": 715603.9311648962,
        "Argument of Periapsis(deg)": 0.0013788041436443293,
        "Eccentricity": 0.0,
        "Inclination(deg)": 45.0,
        "Latitude(deg)": -39.65341694323859,
        "Longitude(deg)": 134.4056624866345,
        "Mean Anomaly(deg)": -64.05837377425232,
        "RAAN(deg)": 289.998698449192,
        "Satellite Name": "Constellation 1 1294",
        "Satellite Number": 1294,
        "Semi-Major Axis(m)": 7083131.272910544,
        "Time(s)": 23
    },
    {
        "Altitude(m)": 715593.8596555329,
        "Argument of Periapsis(deg)": 0.001438752149889735,
        "Eccentricity": 0.0,
        "Inclination(deg)": 45.0,
        "Latitude(deg)": -39.62909119408343,
        "Longitude(deg)": 134.47345111755544,
        "Mean Anomaly(deg)": -63.99767263400243,
        "RAAN(deg)": 289.99864186002634,
        "Satellite Name": "Constellation 1 1294",
        "Satellite Number": 1294,
        "Semi-Major Axis(m)": 7083131.272910544,
        "Time(s)": 24
    },
    {
        "Altitude(m)": 715583.7701314081,
        "Argument of Periapsis(deg)": 0.0014987001561351404,
        "Eccentricity": 0.0,
        "Inclination(deg)": 45.0,
        "Latitude(deg)": -39.60472085729035,
        "Longitude(deg)": 134.54118949929776,
        "Mean Anomaly(deg)": -63.936971493752566,
        "RAAN(deg)": 289.99858527086076,
        "Satellite Name": "Constellation 1 1294",
        "Satellite Number": 1294,
        "Semi-Major Axis(m)": 7083131.272910544,
        "Time(s)": 25
    },
    {
        "Altitude(m)": 715573.6626292777,
        "Argument of Periapsis(deg)": 0.001558648162380546,
        "Eccentricity": 0.0,
        "Inclination(deg)": 45.0,
        "Latitude(deg)": -39.580306001547555,
        "Longitude(deg)": 134.60887761891777,
        "Mean Anomaly(deg)": -63.876270353502626,
        "RAAN(deg)": 289.99852868169523,
        "Satellite Name": "Constellation 1 1294",
        "Satellite Number": 1294,
        "Semi-Major Axis(m)": 7083131.272910544,
        "Time(s)": 26
    },
    {
        "Altitude(m)": 715563.5371859609,
        "Argument of Periapsis(deg)": 0.0016185961686259519,
        "Eccentricity": 0.0,
        "Inclination(deg)": 45.0,
        "Latitude(deg)": -39.55584669554103,
        "Longitude(deg)": 134.67651546389783,
        "Mean Anomaly(deg)": -63.815569213252665,
        "RAAN(deg)": 289.99847209252965,
        "Satellite Name": "Constellation 1 1294",
        "Satellite Number": 1294,
        "Semi-Major Axis(m)": 7083131.272910544,
        "Time(s)": 27
    },
    {
        "Altitude(m)": 715553.3938383332,
        "Argument of Periapsis(deg)": 0.0016785441748713573,
        "Eccentricity": 0.0,
        "Inclination(deg)": 45.0,
        "Latitude(deg)": -39.53134300795384,
        "Longitude(deg)": 134.74410302214537,
        "Mean Anomaly(deg)": -63.75486807300281,
        "RAAN(deg)": 289.99841550336413,
        "Satellite Name": "Constellation 1 1294",
        "Satellite Number": 1294,
        "Semi-Major Axis(m)": 7083131.272910544,
        "Time(s)": 28
    },
    {
        "Altitude(m)": 715543.232623341,
        "Argument of Periapsis(deg)": 0.001738492181116763,
        "Eccentricity": 0.0,
        "Inclination(deg)": 45.0,
        "Latitude(deg)": -39.50679500746551,
        "Longitude(deg)": 134.8116402819916,
        "Mean Anomaly(deg)": -63.694166932752964,
        "RAAN(deg)": 289.9983589141985,
        "Satellite Name": "Constellation 1 1294",
        "Satellite Number": 1294,
        "Semi-Major Axis(m)": 7083131.272910544,
        "Time(s)": 29
    },
    {
        "Altitude(m)": 715533.053577996,
        "Argument of Periapsis(deg)": 0.0017984401873621684,
        "Eccentricity": 0.0,
        "Inclination(deg)": 45.0,
        "Latitude(deg)": -39.48220276275125,
        "Longitude(deg)": 134.87912706409315,
        "Mean Anomaly(deg)": -63.63346579250295,
        "RAAN(deg)": 289.9983023250329,
        "Satellite Name": "Constellation 1 1294",
        "Satellite Number": 1294,
        "Semi-Major Axis(m)": 7083131.272910544,
        "Time(s)": 30
    },
    {
        "Altitude(m)": 715522.8567393576,
        "Argument of Periapsis(deg)": 0.0018583881936075745,
        "Eccentricity": 0.0,
        "Inclination(deg)": 45.0,
        "Latitude(deg)": -39.45756634248245,
        "Longitude(deg)": 134.9465636938178,
        "Mean Anomaly(deg)": -63.57276465225312,
        "RAAN(deg)": 289.9982457358674,
        "Satellite Name": "Constellation 1 1294",
        "Satellite Number": 1294,
        "Semi-Major Axis(m)": 7083131.272910544,
        "Time(s)": 31
    },
    {
        "Altitude(m)": 715512.642144563,
        "Argument of Periapsis(deg)": 0.0019183361998529795,
        "Eccentricity": 0.0,
        "Inclination(deg)": 45.0,
        "Latitude(deg)": -39.43288581532448,
        "Longitude(deg)": 135.0139499926627,
        "Mean Anomaly(deg)": -63.51206351200326,
        "RAAN(deg)": 289.9981891467018,
        "Satellite Name": "Constellation 1 1294",
        "Satellite Number": 1294,
        "Semi-Major Axis(m)": 7083131.272910544,
        "Time(s)": 32
    },
    {
        "Altitude(m)": 715502.4098308044,
        "Argument of Periapsis(deg)": 0.0019782842060983856,
        "Eccentricity": 0.0,
        "Inclination(deg)": 45.0,
        "Latitude(deg)": -39.40816124993728,
        "Longitude(deg)": 135.08128595063974,
        "Mean Anomaly(deg)": -63.45136237175332,
        "RAAN(deg)": 289.9981325575363,
        "Satellite Name": "Constellation 1 1294",
        "Satellite Number": 1294,
        "Semi-Major Axis(m)": 7083131.272910544,
        "Time(s)": 33
    },
    {
        "Altitude(m)": 715492.1598353335,
        "Argument of Periapsis(deg)": 0.0020382322123437906,
        "Eccentricity": 0.0,
        "Inclination(deg)": 45.0,
        "Latitude(deg)": -39.383392714974434,
        "Longitude(deg)": 135.14857155817768,
        "Mean Anomaly(deg)": -63.39066123150335,
        "RAAN(deg)": 289.99807596837064,
        "Satellite Name": "Constellation 1 1294",
        "Satellite Number": 1294,
        "Semi-Major Axis(m)": 7083131.272910544,
        "Time(s)": 34
    },
    {
        "Altitude(m)": 715481.892195473,
        "Argument of Periapsis(deg)": 0.002098180218589197,
        "Eccentricity": 0.0,
        "Inclination(deg)": 45.0,
        "Latitude(deg)": -39.35858027908271,
        "Longitude(deg)": 135.21580680612007,
        "Mean Anomaly(deg)": -63.329960091253575,
        "RAAN(deg)": 289.99801937920506,
        "Satellite Name": "Constellation 1 1294",
        "Satellite Number": 1294,
        "Semi-Major Axis(m)": 7083131.272910544,
        "Time(s)": 35
    },
    {
        "Altitude(m)": 715471.6069485946,
        "Argument of Periapsis(deg)": 0.002158128224834602,
        "Eccentricity": 0.0,
        "Inclination(deg)": 45.0,
        "Latitude(deg)": -39.33372401090133,
        "Longitude(deg)": 135.28299168572562,
        "Mean Anomaly(deg)": -63.26925895100361,
        "RAAN(deg)": 289.99796279003954,
        "Satellite Name": "Constellation 1 1294",
        "Satellite Number": 1294,
        "Semi-Major Axis(m)": 7083131.272910544,
        "Time(s)": 36
    },
    {
        "Altitude(m)": 715461.3041321419,
        "Argument of Periapsis(deg)": 0.002218076231080008,
        "Eccentricity": 0.0,
        "Inclination(deg)": 45.0,
        "Latitude(deg)": -39.30882397906145,
        "Longitude(deg)": 135.35012602056787,
        "Mean Anomaly(deg)": -63.208557810753646,
        "RAAN(deg)": 289.99790620087396,
        "Satellite Name": "Constellation 1 1294",
        "Satellite Number": 1294,
        "Semi-Major Axis(m)": 7083131.272910544,
        "Time(s)": 37
    }
]